[{"OBJECT_NAME":"OBJECT C","OBJECT_ID":"2024-110C","EPOCH":"2026-03-09T23:43:55.665408","MEAN_MOTION":14.9795015,"ECCENTRICITY":0.00127752,"INCLINATION":97.5516,"RA_OF_ASC_NODE":147.5124,"ARG_OF_PERICENTER":117.9593,"MEAN_ANOMALY":242.2925,"EPHEMERIS_TYPE":0,"CLASSIFICATION_TYPE":"U","NORAD_CAT_ID":60014,"ELEMENT_SET_NO":999,"REV_AT_EPOCH":8695,"BSTAR":0.00013340044,"MEAN_MOTION_DOT":1.519e-5,"MEAN_MOTION_DDOT":0},{"OBJECT_NAME":"STARLINK-36055","OBJECT_ID":"2025-280AB","EPOCH":"2026-03-09T21:27:22.920192","MEAN_MOTION":14.98334393,"ECCENTRICITY":0.00023297,"INCLINATION":70.0024,"RA_OF_ASC_NODE":334.0534,"ARG_OF_PERICENTER":240.6927,"MEAN_ANOMALY":119.4,"EPHEMERIS_TYPE":0,"CLASSIFICATION_TYPE":"U","NORAD_CAT_ID":66846,"ELEMENT_SET_NO":999,"REV_AT_EPOCH":1611,"BSTAR":0.00054216839,"MEAN_MOTION_DOT":6.383e-5,"MEAN_MOTION_DDOT":0}]
